COSMOS 2251 DEB         
1 34425U 93036RS  25326.05199875  .00003657  00000+0  73256-3 0  9997
2 34425  74.0192  94.1601 0026114 224.0682 135.8403 14.61940630884381
COSMOS 2251 DEB         
1 34429U 93036RW  25326.09487571  .00113972  00000+0  34768-2 0  9994
2 34429  73.9734 212.5902 0006386  61.9560  57.8338 15.33386672891318
COSMOS 2251 DEB         
1 34430U 93036RX  25326.04988494  .00001099  00000+0  35299-3 0  9998
2 34430  74.0513 341.5345 0059500  56.7844 303.8995 14.39545572876579
COSMOS 2251 DEB         
1 34431U 93036RY  25325.70161316  .00001376  00000+0  54305-3 0  9994
2 34431  74.0754 213.2756 0069162 204.4411 155.3455 14.28689654868429
COSMOS 2251 DEB         
1 34432U 93036RZ  25325.90743176  .00001358  00000+0  77140-3 0  9999
2 34432  73.8267 139.0243 0183576 224.8532 258.0157 14.02790811853927
COSMOS 2251 DEB         
1 34433U 93036SA  25326.09555214  .00003886  00000+0  18914-2 0  9996
2 34433  74.0101 191.4960 0151457 334.0398  25.3197 14.12699944856583
COSMOS 2251 DEB         
1 34434U 93036SB  25325.65610303  .00007674  00000+0  46082-2 0  9995
2 34434  74.0641  45.9761 0278170 187.8338 299.6241 13.89536253836732
COSMOS 2251 DEB         
1 34446U 93036SP  25325.77292135  .00000701  00000+0  18807-3 0  9999
2 34446  74.0407  96.5981 0051905 239.0990 120.5061 14.49313735883908
